ONEWEB-0283             
1 49001U 21060AL  25286.24722675  .00000114  00000+0  26568-3 0  9996
2 49001  87.8970 277.9814 0001782  93.7400 266.3935 13.16593862207124
ONEWEB-0284             
1 49002U 21060AM  25286.24088950  .00000045  00000+0  83870-4 0  9991
2 49002  87.8982 277.9670 0002252  91.1822 268.9567 13.16592930207103
ONEWEB-0285             
1 49075U 21075A   25286.28060374 -.00000167  00000+0 -49884-3 0  9994
2 49075  87.8955  39.7063 0001741 101.6966 258.4358 13.12443634202829
ONEWEB-0286             
1 49076U 21075B   25286.33872489 -.00000288  00000+0 -83713-3 0  9992
2 49076  87.8954  39.7304 0001688  94.3276 265.8045 13.12441369202186
ONEWEB-0287             
1 49077U 21075C   25286.29815600  .00000067  00000+0  13904-3 0  9998
2 49077  87.9104  54.9588 0001750  87.4562 272.6770 13.17651177201117
ONEWEB-0288             
1 49078U 21075D   25286.31453472  .00000496  00000+0  13432-2 0  9998
2 49078  87.8958  39.6948 0001859  98.7730 261.3609 13.12443252202807
ONEWEB-0289             
1 49079U 21075E   25286.33684013  .00000102  00000+0  22860-3 0  9998
2 49079  87.9091  54.9733 0002118 102.9146 257.2222 13.17647352201690
ONEWEB-0290             
1 49080U 21075F   25286.30998724  .00000070  00000+0  14724-3 0  9998
2 49080  87.9100  54.9355 0002129 111.0782 249.0577 13.17649689201105
